SOMP                    
1 39134U 13015E   23008.23555252  .00038677  00000+0  10535-2 0  9998
2 39134  64.8590 106.3683 0027034 255.0201 104.7941 15.36920936538604
BEESAT-3                
1 39135U 13015F   23008.35841723  .00026256  00000+0  89764-3 0  9994
2 39135  64.8633 147.8926 0033179 253.1972 106.5520 15.29686012537815
BEESAT-2                
1 39136U 13015G   23007.45080205  .00022950  00000+0  82989-3 0  9994
2 39136  64.8716 160.4522 0025938 287.6091  72.2207 15.28120805537025
GAOFEN 1                
1 39150U 13018A   23008.50590223  .00000888  00000+0  13471-3 0  9992
2 39150  98.0521  79.5863 0021892 348.5032  11.5684 14.76446576522992
NEE-01 PEGASO           
1 39151U 13018B   23008.26616317  .00002413  00000+0  31345-3 0  9995
2 39151  98.0007 118.4372 0015599 314.4848  45.5089 14.81582346524006
COSMOS 2485 [GLONASS-M] 
1 39155U 13019A   23008.19072047 -.00000003  00000+0  00000+0 0  9992
2 39155  64.8582 115.9301 0022274 228.1008 145.0033  2.13101747 75527
CHINASAT 11 (ZX 11)     
1 39157U 13020A   23008.05965983 -.00000277  00000+0  00000+0 0  9994
2 39157   0.0421 242.0901 0001636  60.3970 284.1860  1.00268705 35559
PROBA-V                 
1 39159U 13021A   23008.32421081  .00000056  00000+0  42732-4 0  9990
2 39159  98.3359  38.6559 0003735 196.4647 163.6412 14.23069422502460
VNREDSAT 1              
1 39160U 13021B   23008.48502275  .00000762  00000+0  15794-3 0  9995
2 39160  98.0597  84.3820 0001795  93.2010 266.9403 14.62929063516599
ESTCUBE 1               
1 39161U 13021C   23008.14128452  .00001803  00000+0  28514-3 0  9991
2 39161  97.8916  84.9119 0010277 120.8734 239.3563 14.73439639519607
EUTELSAT 7B             
1 39163U 13022A   23008.31299667  .00000061  00000+0  00000+0 0  9991
2 39163   0.0657 355.8864 0005233 334.2944 257.0828  1.00271185 35367
NAVSTAR 68 (USA 242)    
1 39166U 13023A   23007.26309733 -.00000076  00000+0  00000+0 0  9991
2 39166  55.5506 319.7243 0109507  38.4671 322.3046  2.00565258 70676
WGS F5 (USA 243)        
1 39168U 13024A   23008.53180668 -.00000272  00000+0  00000+0 0  9997
2 39168   0.0193  63.4571 0000626 247.7010 295.6132  1.00271527 35239
SES-6                   
1 39172U 13026A   23007.81685573 -.00000248  00000+0  00000+0 0  9992
2 39172   0.0245 333.7838 0002513 310.9187  75.9616  1.00271986 35129
COSMOS 2486             
1 39177U 13028A   23008.49351858  .00000262  00000+0  70742-4 0  9990
2 39177  97.9063  20.5502 0010682 338.3545  21.7203 14.54890081508711
RESURS P1               
1 39186U 13030A   23008.45499377  .00012606  00000+0  31398-3 0  9996
2 39186  97.0969  63.5928 0013652 340.7181 114.7913 15.40275033533954
O3B FM5                 
1 39188U 13031A   23007.76537376 -.00000021  00000+0  00000+0 0  9995
2 39188   0.0656   3.8704 0002905 288.8782  67.2181  5.00115457174183
O3B FM4                 
1 39189U 13031B   23007.82128628 -.00000021  00000+0  00000+0 0  9999
2 39189   0.0386 356.3906 0002827 295.8006  67.7761  5.00115972174297
O3B FM2                 
1 39190U 13031C   23007.71294026 -.00000021  00000+0  00000+0 0  9995
2 39190   0.0343 352.0533 0002808 298.2180  69.6958  5.00115222174253
O3B PFM                 
1 39191U 13031D   23007.73912834 -.00000021  00000+0  00000+0 0  9992
2 39191   0.0565   3.6794 0002751 282.9754  73.3123  5.00115945173800
IRIS                    
1 39197U 13033A   23007.77641149  .00001766  00000+0  24090-3 0  9997
2 39197  97.9666 196.8820 0028498  87.8513 272.5961 14.79653304514184
IRNSS-1A                
1 39199U 13034A   23007.76436866  .00000069  00000+0  00000+0 0  9993
2 39199  32.8852  82.2851 0020887 186.9308 168.0170  1.00270766 34769
SJ-11-05                
1 39202U 13035A   23008.47887993  .00000818  00000+0  17476-3 0  9990
2 39202  98.1985 176.5256 0010514 199.9028 160.1776 14.61400864505607
MUOS-2                  
1 39206U 13036A   23008.50687748  .00000076  00000+0  00000+0 0  9992
2 39206   2.8837  29.5316 0052782 184.0098 259.7100  1.00272817 34717
SHIYAN 7 (SY-7)         
1 39208U 13037A   23007.92107007  .00000859  00000+0  15520-3 0  9991
2 39208  98.0404   7.7895 0008448 175.1920 184.9368 14.68896582507563
CHUANGXIN-3 (CX-3)      
1 39209U 13037B   23007.93717053  .00001300  00000+0  22900-3 0  9993
2 39209  98.0437   8.2436 0004868 162.7019 197.4353 14.69183362507547
SHIJIAN-15 (SJ-15)      
1 39210U 13037C   23007.90296056  .00000558  00000+0  10534-3 0  9991
2 39210  98.0528   6.9149 0006813 168.9058 191.2298 14.68149880509783
ALPHASAT                
1 39215U 13038A   23008.47549809  .00000146  00000+0  00000+0 0  9993
2 39215   2.7830  11.9772 0002358 267.9474  23.8537  1.00268968 34674
INSAT-3D                
1 39216U 13038B   23007.84134910 -.00000143  00000+0  00000+0 0  9995
2 39216   0.0440 243.6820 0001903  34.3106 214.0990  1.00271881 34703
WGS F6 (USA 244)        
1 39222U 13041A   23008.43591262  .00000102  00000+0  00000+0 0  9993
2 39222   0.0212  85.3025 0000594 207.0623 197.0901  1.00271928 34471
ARIRANG-5 (KOMPSAT-5)   
1 39227U 13042A   23008.42815323  .00001661  00000+0  12294-3 0  9998
2 39227  97.6257 196.5518 0003692  82.2807 316.3144 15.04514438515102
ES'HAIL 1               
1 39233U 13044A   23007.83001764  .00000155  00000+0  00000+0 0  9992
2 39233   0.0459  11.5725 0002197 271.6434 148.1929  1.00270887 34034
GSAT-7                  
1 39234U 13044B   23008.12202068 -.00000064  00000+0  00000+0 0  9996
2 39234   0.0181  44.8004 0009946 228.5136 312.0232  1.00271653 34306
AMOS-4                  
1 39237U 13045A   23008.30414062  .00000020  00000+0  00000+0 0  9990
2 39237   0.0053 332.7805 0003283 345.6986 323.5920  1.00271803 34293
YAOGAN 17A              
1 39239U 13046A   23008.59608138 -.00000097  00000+0 -87084-5 0  9992
2 39239  63.3996  84.8149 0314371   6.9541 353.5696 13.45254633459474
YAOGAN 17B              
1 39240U 13046B   23008.60488423 -.00000082  00000+0  10050-4 0  9990
2 39240  63.4012  85.0774 0314492   6.6224 353.8811 13.45204362459478
YAOGAN 17C              
1 39241U 13046C   23007.92730546 -.00000018  00000+0  90977-4 0  9996
2 39241  63.4007  85.8070 0315104   6.6572 353.8493 13.45245512459408
GONETS-M 5              
1 39249U 13048A   23007.79111309  .00000015  00000+0  33479-4 0  9991
2 39249  82.4834  46.5896 0017529  74.8434 285.4598 12.42867711422963
GONETS-M 6              
1 39250U 13048B   23007.80012441  .00000021  00000+0  81736-4 0  9998
2 39250  82.4866  47.3621 0020039 106.3714 253.9570 12.42967630422980
GONETS-M 7              
1 39251U 13048C   23008.16504932  .00000030  00000+0  14297-3 0  9997
2 39251  82.4908  48.5909 0018164  74.7137 285.5958 12.42874580422996
HISAKI (SPRINT-A)       
1 39253U 13049A   23008.01414059  .00000158  00000+0  12381-3 0  9997
2 39253  29.7197 125.2022 0137287 274.9415  83.5496 13.55303506461910
AEHF-3 (USA 246)        
1 39256U 13050A   23007.79401851  .00000145  00000+0  00000+0 0  9999
2 39256   2.1810  73.4959 0058474 186.8729 337.5542  1.00266761 33076
FENGYUN 3C              
1 39260U 13052A   23008.54931819  .00000125  00000+0  84272-4 0  9998
2 39260  98.4385  31.1108 0012019  47.3929 312.8257 14.15974035480942
CASSIOPE                
1 39265U 13055A   23008.48427822  .00014722  00000+0  37377-3 0  9994
2 39265  80.9616  49.1255 0600528  68.3653 298.0386 14.44390833481845
POPACS 1                
1 39268U 13055D   23007.72112750  .00026643  00000+0  64618-3 0  9997
2 39268  80.9942  18.5985 0539479 300.4030  54.4890 14.58177591482984
POPACS 2                
1 39269U 13055E   23007.49165984  .00012220  00000+0  32222-3 0  9991
2 39269  81.0108  82.2947 0629102 105.6308 261.5185 14.37557463479445
POPACS 3                
1 39270U 13055F   23007.56656587  .00014106  00000+0  42282-3 0  9997
2 39270  81.0154 118.9601 0678318 209.1588 147.0089 14.24489433457663
ASTRA 2E                
1 39285U 13056A   23007.83062779  .00000163  00000+0  00000+0 0  9994
2 39285   0.0543  16.4588 0002512 280.9634 137.1845  1.00271465 33848
SHIJIAN-16 (SJ-16)      
1 39358U 13057A   23008.46564997  .00000944  00000+0  10954-3 0  9995
2 39358  74.9732 203.7544 0017604  24.4197 335.7838 14.86511446499450
FM-6                    
1 39360U 13058A   23008.44734380 -.00000004  00000+0  00000+0 0  9997
2 39360   0.0028   1.4927 0000561 182.1784 328.9422  1.00271487 33757
RADUGA-1M 3             
1 39375U 13062A   23008.24632601  .00000166  00000+0  00000+0 0  9997
2 39375   2.7542  87.5006 0001433 152.2053 351.4514  1.00272313 33530
STPSAT-3                
1 39380U 13064A   23008.29974888  .00090300  00000+0  90338-3 0  9992
2 39380  40.4943 231.0012 0012766 321.8195  38.1724 15.64393923512771
YAOGAN 19               
1 39410U 13065A   23008.25016026 -.00000004  00000+0  10000-3 0  9995
2 39410 100.0556  30.8074 0010007 105.2865 254.9359 13.15504901438543
APRIZESAT 7             
1 39416U 13066A   23007.90580316  .00001712  00000+0  20444-3 0  9990
2 39416  97.5984 343.1405 0041577  45.9287 314.5339 14.84863608494379
ZACUBE-1 (TSHEPISOSAT)  
1 39417U 13066B   23007.84514537  .00003759  00000+0  45237-3 0  9996
2 39417  97.6649 335.5318 0058296  94.1448 266.6432 14.83255656493410
SKYSAT-A                
1 39418U 13066C   23008.14566668  .00003711  00000+0  29513-3 0  9990
2 39418  97.5377  78.7464 0031607 287.4005  72.3763 15.00642395499346
DUBAISAT-2              
1 39419U 13066D   23008.47993442  .00002647  00000+0  24249-3 0  9999
2 39419  97.4265  34.9978 0012304 314.0576  45.9656 14.95685400497835
OPTOS                   
1 39420U 13066E   23007.58624382  .00002171  00000+0  37256-3 0  9990
2 39420  97.8223 280.3873 0135777  69.9186 291.6571 14.63765902487127
STSAT-3                 
1 39422U 13066G   23008.47651815  .00002245  00000+0  23077-3 0  9990
2 39422  97.4762   7.7271 0021460 321.4312  38.5403 14.91121436496385
